STARLETTE               
1 07646U 75010A   16274.18438322 -.00000148  00000-0 -58134-5 0  9998
2 07646  49.8248  64.5602 0205715 225.9613 132.4172 13.82301300103882
LAGEOS 1                
1 08820U 76039A   16272.67271137 -.00000009  00000-0  00000-0 0  9995
2 08820 109.8577  43.8004 0044592 341.8130 273.2676  6.38664890686834
AJISAI (EGS)            
1 16908U 86061A   16274.19216435 -.00000106  00000-0 -62070-4 0  9994
2 16908  50.0080 253.9893 0011353 152.1592  36.6249 12.44484423 39060
LAGEOS 2                
1 22195U 92070B   16274.44968002 -.00000009  00000-0  00000+0 0  9999
2 22195  52.6749 348.2219 0137828  76.4211 329.4251  6.47293714566010
STELLA                  
1 22824U 93061B   16274.22124942 -.00000048  00000-0 -12881-5 0  9992
2 22824  98.7775 223.3816 0007513  83.7972  28.9112 14.27364956198929
GRACE-1                 
1 27391U 02012A   16274.53023346  .00017807  00000-0  13413-3 0  9991
2 27391  89.0002 358.6522 0007007  41.5122  18.2897 15.72350733816571
GRACE-2                 
1 27392U 02012B   16273.75561555  .00018912  00000-0  14257-3 0  9999
2 27392  89.0011 358.8612 0007134  44.2245 315.9598 15.72331418816441
LARES                   
1 38077U 12006A   16274.37956350 -.00000022  00000-0  10000-3 0  9991
2 38077  69.4892 230.5079 0008673 165.6476 194.4798 12.54930882212177
